[
    {
        "Altitude(m)": 605459.0538514236,
        "Argument of Periapsis(deg)": 0.0,
        "Eccentricity": 0.0,
        "Inclination(deg)": 60.0,
        "Latitude(deg)": 27.98829534853783,
        "Longitude(deg)": 42.79853735881807,
        "Mean Anomaly(deg)": 32.72730000000001,
        "RAAN(deg)": 125.00000000000001,
        "Satellite Name": "Test1 552",
        "Satellite Number": 552,
        "Semi-Major Axis(m)": 6980739.136638005,
        "Time(s)": 0
    },
    {
        "Altitude(m)": 605535.8453445699,
        "Argument of Periapsis(deg)": 0.00010418945913296404,
        "Eccentricity": 0.0,
        "Inclination(deg)": 60.0,
        "Latitude(deg)": 28.501425409694217,
        "Longitude(deg)": 43.15548168017562,
        "Mean Anomaly(deg)": 33.34740614546182,
        "RAAN(deg)": 124.99957995086027,
        "Satellite Name": "Test1 552",
        "Satellite Number": 552,
        "Semi-Major Axis(m)": 6980739.136638005,
        "Time(s)": 10
    }
]